{
  "type": "FeatureCollection",
  "features": [
    {
      "type": "Feature",
      "properties": {
        "norad_id": 35915,
        "name": "IRIDIUM 33 DEB",
        "group": "iridium-33-debris",
        "lat": 41.261993012731516,
        "lon": 162.9971916553902,
        "alt_km": 623.2894264490114,
        "timestamp": "2025-12-05T14:45:15.683226+00:00",
        "meta_object_name": "IRIDIUM 33 DEB",
        "meta_object_id": "1997-051TY",
        "meta_epoch": "2025-12-03T18:19:42.417696",
        "meta_mean_motion": 14.80347774,
        "meta_eccentricity": 0.00098177,
        "meta_inclination": 86.3435,
        "meta_ra_of_asc_node": 347.0587,
        "meta_arg_of_pericenter": 222.269,
        "meta_mean_anomaly": 137.7775,
        "meta_ephemeris_type": 0,
        "meta_classification_type": "U",
        "meta_norad_cat_id": 35915,
        "meta_element_set_no": 999,
        "meta_rev_at_epoch": 7953,
        "meta_bstar": 0.002591589,
        "meta_mean_motion_dot": 0.00019836,
        "meta_mean_motion_ddot": 0,
        "tle_line1": "1 35915U 97051TY  25337.76368539  .00019836  00000+0  25916-2 0  9993",
        "tle_line2": "2 35915  86.3435 347.0587 0009817 222.2690 137.7775 14.80347774 79532"
      },
      "geometry": {
        "type": "Point",
        "coordinates": [
          162.9971916553902,
          41.261993012731516
        ]
      }
    },
    {
      "type": "Feature",
      "properties": {
        "norad_id": 35918,
        "name": "IRIDIUM 33 DEB",
        "group": "iridium-33-debris",
        "lat": -33.3409355783259,
        "lon": 76.49886594276758,
        "alt_km": 741.2379736307212,
        "timestamp": "2025-12-05T14:45:15.683236+00:00",
        "meta_object_name": "IRIDIUM 33 DEB",
        "meta_object_id": "1997-051UB",
        "meta_epoch": "2025-11-30T01:41:55.281408",
        "meta_mean_motion": 14.51050885,
        "meta_eccentricity": 0.00264066,
        "meta_inclination": 86.4001,
        "meta_ra_of_asc_node": 81.2516,
        "meta_arg_of_pericenter": 211.3482,
        "meta_mean_anomaly": 332.4953,
        "meta_ephemeris_type": 0,
        "meta_classification_type": "U",
        "meta_norad_cat_id": 35918,
        "meta_element_set_no": 999,
        "meta_rev_at_epoch": 85023,
        "meta_bstar": 0.0014523463,
        "meta_mean_motion_dot": 5.795e-05,
        "meta_mean_motion_ddot": 0,
        "tle_line1": "1 35918U 97051UB  25334.07077872  .00005795  00000+0  14523-2 0  9995",
        "tle_line2": "2 35918  86.4001  81.2516 0026406 211.3482 332.4953 14.51050885850233"
      },
      "geometry": {
        "type": "Point",
        "coordinates": [
          76.49886594276758,
          -33.3409355783259
        ]
      }
    },
    {
      "type": "Feature",
      "properties": {
        "norad_id": 35929,
        "name": "IRIDIUM 33 DEB",
        "group": "iridium-33-debris",
        "lat": -34.90241813134616,
        "lon": 138.57299361295762,
        "alt_km": 581.3140661271818,
        "timestamp": "2025-12-05T14:45:15.683255+00:00",
        "meta_object_name": "IRIDIUM 33 DEB",
        "meta_object_id": "1997-051UN",
        "meta_epoch": "2025-12-02T05:49:26.497920",
        "meta_mean_motion": 15.01302222,
        "meta_eccentricity": 0.0019551,
        "meta_inclination": 86.3366,
        "meta_ra_of_asc_node": 317.6054,
        "meta_arg_of_pericenter": 65.7136,
        "meta_mean_anomaly": 294.6136,
        "meta_ephemeris_type": 0,
        "meta_classification_type": "U",
        "meta_norad_cat_id": 35929,
        "meta_element_set_no": 999,
        "meta_rev_at_epoch": 87622,
        "meta_bstar": 0.0029859,
        "meta_mean_motion_dot": 0.00038744,
        "meta_mean_motion_ddot": 0,
        "tle_line1": "1 35929U 97051UN  25336.24266780  .00038744  00000+0  29859-2 0  9994",
        "tle_line2": "2 35929  86.3366 317.6054 0019551  65.7136 294.6136 15.01302222876221"
      },
      "geometry": {
        "type": "Point",
        "coordinates": [
          138.57299361295762,
          -34.90241813134616
        ]
      }
    },
    {
      "type": "Feature",
      "properties": {
        "norad_id": 36011,
        "name": "IRIDIUM 33 DEB",
        "group": "iridium-33-debris",
        "lat": -86.3374272096061,
        "lon": -53.41162690418505,
        "alt_km": 751.0242400115767,
        "timestamp": "2025-12-05T14:45:15.683273+00:00",
        "meta_object_name": "IRIDIUM 33 DEB",
        "meta_object_id": "1997-051US",
        "meta_epoch": "2025-11-27T22:48:02.153088",
        "meta_mean_motion": 14.41259363,
        "meta_eccentricity": 0.0016688,
        "meta_inclination": 86.3418,
        "meta_ra_of_asc_node": 41.7752,
        "meta_arg_of_pericenter": 268.8947,
        "meta_mean_anomaly": 217.0188,
        "meta_ephemeris_type": 0,
        "meta_classification_type": "U",
        "meta_norad_cat_id": 36011,
        "meta_element_set_no": 999,
        "meta_rev_at_epoch": 64327,
        "meta_bstar": 0.00058853,
        "meta_mean_motion_dot": 1.923e-05,
        "meta_mean_motion_ddot": 0,
        "tle_line1": "1 36011U 97051US  25331.95002492  .00001923  00000+0  58853-3 0  9994",
        "tle_line2": "2 36011  86.3418  41.7752 0016688 268.8947 217.0188 14.41259363643279"
      },
      "geometry": {
        "type": "Point",
        "coordinates": [
          -53.41162690418505,
          -86.3374272096061
        ]
      }
    },
    {
      "type": "Feature",
      "properties": {
        "norad_id": 36012,
        "name": "IRIDIUM 33 DEB",
        "group": "iridium-33-debris",
        "lat": 52.13272320803356,
        "lon": -45.00212450928419,
        "alt_km": 914.1043106901361,
        "timestamp": "2025-12-05T14:45:15.683284+00:00",
        "meta_object_name": "IRIDIUM 33 DEB",
        "meta_object_id": "1997-051UT",
        "meta_epoch": "2025-12-03T04:56:48.315264",
        "meta_mean_motion": 14.1845141,
        "meta_eccentricity": 0.02142376,
        "meta_inclination": 86.4416,
        "meta_ra_of_asc_node": 311.3777,
        "meta_arg_of_pericenter": 293.9215,
        "meta_mean_anomaly": 63.9663,
        "meta_ephemeris_type": 0,
        "meta_classification_type": "U",
        "meta_norad_cat_id": 36012,
        "meta_element_set_no": 999,
        "meta_rev_at_epoch": 65349,
        "meta_bstar": 0.0098372444,
        "meta_mean_motion_dot": 0.00025586,
        "meta_mean_motion_ddot": 0,
        "tle_line1": "1 36012U 97051UT  25337.20611476  .00025586  00000+0  98372-2 0  9997",
        "tle_line2": "2 36012  86.4416 311.3777 0214237 293.9215  63.9663 14.18451410653491"
      },
      "geometry": {
        "type": "Point",
        "coordinates": [
          -45.00212450928419,
          52.13272320803356
        ]
      }
    },
    {
      "type": "Feature",
      "properties": {
        "norad_id": 36028,
        "name": "IRIDIUM 33 DEB",
        "group": "iridium-33-debris",
        "lat": -19.224238954310135,
        "lon": -51.237577279885436,
        "alt_km": 588.926406401949,
        "timestamp": "2025-12-05T14:45:15.683295+00:00",
        "meta_object_name": "IRIDIUM 33 DEB",
        "meta_object_id": "1997-051VK",
        "meta_epoch": "2025-12-02T04:53:22.244352",
        "meta_mean_motion": 14.94476089,
        "meta_eccentricity": 0.0022096,
        "meta_inclination": 86.3209,
        "meta_ra_of_asc_node": 311.6506,
        "meta_arg_of_pericenter": 84.2868,
        "meta_mean_anomaly": 276.0879,
        "meta_ephemeris_type": 0,
        "meta_classification_type": "U",
        "meta_norad_cat_id": 36028,
        "meta_element_set_no": 999,
        "meta_rev_at_epoch": 86967,
        "meta_bstar": 0.0026794,
        "meta_mean_motion_dot": 0.00029149,
        "meta_mean_motion_ddot": 0,
        "tle_line1": "1 36028U 97051VK  25336.20372968  .00029149  00000+0  26794-2 0  9991",
        "tle_line2": "2 36028  86.3209 311.6506 0022096  84.2868 276.0879 14.94476089869673"
      },
      "geometry": {
        "type": "Point",
        "coordinates": [
          -51.237577279885436,
          -19.224238954310135
        ]
      }
    },
    {
      "type": "Feature",
      "properties": {
        "norad_id": 36080,
        "name": "IRIDIUM 33 DEB",
        "group": "iridium-33-debris",
        "lat": 0.41859386280419825,
        "lon": 11.119251483184463,
        "alt_km": 752.2324293516149,
        "timestamp": "2025-12-05T14:45:15.683320+00:00",
        "meta_object_name": "IRIDIUM 33 DEB",
        "meta_object_id": "1997-051VM",
        "meta_epoch": "2025-12-04T08:52:09.343776",
        "meta_mean_motion": 14.46551411,
        "meta_eccentricity": 0.0017324,
        "meta_inclination": 86.3204,
        "meta_ra_of_asc_node": 11.6345,
        "meta_arg_of_pericenter": 183.7015,
        "meta_mean_anomaly": 176.4063,
        "meta_ephemeris_type": 0,
        "meta_classification_type": "U",
        "meta_norad_cat_id": 36080,
        "meta_element_set_no": 999,
        "meta_rev_at_epoch": 47293,
        "meta_bstar": 0.0013956,
        "meta_mean_motion_dot": 5.055e-05,
        "meta_mean_motion_ddot": 0,
        "tle_line1": "1 36080U 97051VM  25338.36955259  .00005055  00000+0  13956-2 0  9994",
        "tle_line2": "2 36080  86.3204  11.6345 0017324 183.7015 176.4063 14.46551411472938"
      },
      "geometry": {
        "type": "Point",
        "coordinates": [
          11.119251483184463,
          0.41859386280419825
        ]
      }
    }
  ]
}